AMOS-17                 
1 44479U 19050A   26062.30458771  .00000094  00000+0  00000+0 0  9995
2 44479   0.0379 292.9023 0001629  43.0471 311.7420  1.00270450 24129
