[{"OBJECT_NAME":"AMOS-17","OBJECT_ID":"2019-050A","EPOCH":"2026-03-03T07:18:36.378144","MEAN_MOTION":1.0027045,"ECCENTRICITY":0.00016297,"INCLINATION":0.0379,"RA_OF_ASC_NODE":292.9023,"ARG_OF_PERICENTER":43.0471,"MEAN_ANOMALY":311.742,"EPHEMERIS_TYPE":0,"CLASSIFICATION_TYPE":"U","NORAD_CAT_ID":44479,"ELEMENT_SET_NO":999,"REV_AT_EPOCH":2412,"BSTAR":0,"MEAN_MOTION_DOT":9.4e-7,"MEAN_MOTION_DDOT":0}]
